STARLINK-3046           
1 49169U 21082AR  26176.85233528  .00009548  00000+0  80687-3 0  9997
2 49169  69.9993   1.7485 0003894 253.1294 106.9439 14.98328471262673
STARLINK-3107           
1 49171U 21082AT  26176.82477730  .00019660  00000+0  10562-2 0  9992
2 49171  69.9941   9.0114 0002108 150.3436 209.7851 15.14907355263654
STARLINK-3045           
1 49173U 21082AV  26176.83984369  .00000423  00000+0  43244-4 0  9998
2 49173  69.9994   1.7623 0002806 267.9343  92.1494 14.98329130262673
STARLINK-3087           
1 49175U 21082AX  26176.81576769 -.00008339  00000+0 -70572-3 0  9998
2 49175  69.9998   3.0974 0003204 256.6927 103.3875 14.97564947262639
STARLINK-3069           
1 49176U 21082AY  26176.83335647  .00598919  00000+0  33533-1 0  9999
2 49176  70.0008 341.4224 0003662 279.3899 283.6592 15.11160578  5452
STARLINK-3103           
1 49177U 21082AZ  26176.81040367  .00000085  00000+0  14920-4 0  9994
2 49177  69.9994 341.8509 0003080 268.5068  91.5738 14.98331495264352
STARLINK-3086           
1 49178U 21082BA  26176.83590270  .00000190  00000+0  23696-4 0  9997
2 49178  70.0000  21.7691 0002704 266.9796  93.1054 14.98332092263332
STARLINK-3043           
1 49179U 21082BB  26176.86464584  .00000649  00000+0  62209-4 0  9991
2 49179  69.9998 341.6978 0002716 268.1744  91.9104 14.98331736263165
STARLINK-3059           
1 49181U 21082BD  26176.81921106  .00000095  00000+0  15771-4 0  9994
2 49181  69.9997  21.8244 0002865 269.4293  90.6538 14.98333657263361
ONEWEB-0292             
1 49186U 21083A   26176.84979705  .00000339  00000+0  89356-3 0  9991
2 49186  87.8958 318.5130 0001801  93.2657 266.8679 13.13454892232065
ONEWEB-0303             
1 49187U 21083B   26176.80198727  .00000129  00000+0  29488-3 0  9992
2 49187  87.9172 333.7420 0001908  89.8412 270.2939 13.18687773231118
ONEWEB-0306             
1 49188U 21083C   26176.41248250  .00000068  00000+0  14068-3 0  9997
2 49188  87.9177 333.8078 0001849 101.4747 258.6593 13.18687502231105
ONEWEB-0307             
1 49189U 21083D   26176.84388139  .00000328  00000+0  86249-3 0  9995
2 49189  87.8960 318.5116 0001937  94.7341 265.4010 13.13470828232062
ONEWEB-0320             
1 49190U 21083E   26176.81210321  .00000005  00000+0 -20868-4 0  9990
2 49190  87.9168 333.7455 0001839  96.4152 263.7189 13.18686380231110
ONEWEB-0321             
1 49191U 21083F   26176.68580225  .00000043  00000+0  74565-4 0  9993
2 49191  87.9193 272.7412 0002000 108.0074 252.1277 13.20772573237959
ONEWEB-0322             
1 49192U 21083G   26176.83965645  .00000345  00000+0  90841-3 0  9993
2 49192  87.8960 318.5127 0001532 109.1516 250.9779 13.13471493232053
ONEWEB-0324             
1 49193U 21083H   26176.48162513  .00000054  00000+0  10486-3 0  9992
2 49193  87.9180 333.7997 0001996  96.7999 263.3361 13.18685427231090
ONEWEB-0325             
1 49194U 21083J   26176.48499736  .00000082  00000+0  17526-3 0  9996
2 49194  87.9165 333.8063 0001784  93.2295 266.9041 13.18686060231105
ONEWEB-0326             
1 49195U 21083K   26176.80382407 -.00000092  00000+0 -26536-3 0  9993
2 49195  87.9178 333.7415 0001873  86.1756 273.9590 13.18684552231136
ONEWEB-0327             
1 49196U 21083L   26176.80354355 -.00000064  00000+0 -19582-3 0  9997
2 49196  87.9167 333.7451 0001748  81.9750 278.1581 13.18684669231151
ONEWEB-0328             
1 49197U 21083M   26176.82948917  .00000181  00000+0  46047-3 0  9997
2 49197  87.8972 318.4884 0001973  98.3321 261.8032 13.13471182232038
ONEWEB-0331             
1 49198U 21083N   26176.79692093  .00000085  00000+0  18164-3 0  9997
2 49198  87.9176 333.7366 0001978  84.8412 275.2946 13.18688406231145
ONEWEB-0333             
1 49199U 21083P   26176.82440829 -.00000026  00000+0 -10642-3 0  9990
2 49199  87.8956 318.5151 0001814  97.1993 262.9342 13.13471093232044
ONEWEB-0334             
1 49200U 21083Q   26176.77586375 -.00000059  00000+0 -17812-3 0  9996
2 49200  87.9194 272.7334 0001690 123.9789 236.1505 13.20772730237925
ONEWEB-0335             
1 49201U 21083R   26176.81932485 -.00000141  00000+0 -42006-3 0  9994
2 49201  87.8961 318.5133 0001938  92.9901 267.1449 13.13471909232055
ONEWEB-0336             
1 49202U 21083S   26176.63820904 -.00000065  00000+0 -21386-3 0  9990
2 49202  87.8961 318.5447 0002042  91.0417 269.0946 13.13471994232027
ONEWEB-0337             
1 49203U 21083T   26176.80056973 -.00000257  00000+0 -73734-3 0  9994
2 49203  87.8958 318.5183 0002066  97.0828 263.0536 13.13470232232044
ONEWEB-0338             
1 49204U 21083U   26176.82887763 -.00000089  00000+0 -25034-3 0  9999
2 49204  87.9186 272.7260 0001868 106.4224 253.7115 13.20773723237953
ONEWEB-0339             
1 49205U 21083V   26176.80916345 -.00000284  00000+0 -81338-3 0  9993
2 49205  87.8960 318.5092 0001778 107.2735 252.8589 13.13471485232021
ONEWEB-0340             
1 49206U 21083W   26176.85932647  .00000069  00000+0  14266-3 0  9997
2 49206  87.9178 333.7302 0001976  91.3571 268.7787 13.18686175231112
