OBJECT_NAME,OBJECT_ID,EPOCH,MEAN_MOTION,ECCENTRICITY,INCLINATION,RA_OF_ASC_NODE,ARG_OF_PERICENTER,MEAN_ANOMALY,EPHEMERIS_TYPE,CLASSIFICATION_TYPE,NORAD_CAT_ID,ELEMENT_SET_NO,REV_AT_EPOCH,BSTAR,MEAN_MOTION_DOT,MEAN_MOTION_DDOT
STARLINK-3046,2021-082AR,2026-06-25T20:27:21.768192,14.98328471,.0003894,69.9993,1.7485,253.1294,106.9439,0,U,49169,999,26267,.80687E-3,.9548E-4,0
STARLINK-3107,2021-082AT,2026-06-25T19:47:40.758720,15.14907355,.0002108,69.9941,9.0114,150.3436,209.7851,0,U,49171,999,26365,.10562E-2,.1966E-3,0
STARLINK-3045,2021-082AV,2026-06-25T20:09:22.494816,14.98329130,.0002806,69.9994,1.7623,267.9343,92.1494,0,U,49173,999,26267,.43244E-4,.423E-5,0
STARLINK-3087,2021-082AX,2026-06-25T19:34:42.328416,14.97564947,.0003204,69.9998,3.0974,256.6927,103.3875,0,U,49175,999,26263,-.70572E-3,-.8339E-4,0
STARLINK-3069,2021-082AY,2026-06-25T20:00:01.999008,15.11160578,.0003662,70.0008,341.4224,279.3899,283.6592,0,U,49176,999,545,.33533E-1,.598919E-2,0
STARLINK-3103,2021-082AZ,2026-06-25T19:26:58.877088,14.98331495,.000308,69.9994,341.8509,268.5068,91.5738,0,U,49177,999,26435,.1492E-4,.85E-6,0
STARLINK-3086,2021-082BA,2026-06-25T20:03:41.993280,14.98332092,.0002704,70.0000,21.7691,266.9796,93.1054,0,U,49178,999,26333,.23696E-4,.19E-5,0
STARLINK-3043,2021-082BB,2026-06-25T20:45:05.400576,14.98331736,.0002716,69.9998,341.6978,268.1744,91.9104,0,U,49179,999,26316,.62209E-4,.649E-5,0
STARLINK-3059,2021-082BD,2026-06-25T19:39:39.835584,14.98333657,.0002865,69.9997,21.8244,269.4293,90.6538,0,U,49181,999,26336,.15771E-4,.95E-6,0
ONEWEB-0292,2021-083A,2026-06-25T20:23:42.465120,13.13454892,.0001801,87.8958,318.5130,93.2657,266.8679,0,U,49186,999,23206,.89356E-3,.339E-5,0
ONEWEB-0303,2021-083B,2026-06-25T19:14:51.700128,13.18687773,.0001908,87.9172,333.7420,89.8412,270.2939,0,U,49187,999,23111,.29488E-3,.129E-5,0
ONEWEB-0306,2021-083C,2026-06-25T09:53:58.488000,13.18687502,.0001849,87.9177,333.8078,101.4747,258.6593,0,U,49188,999,23110,.14068E-3,.68E-6,0
ONEWEB-0307,2021-083D,2026-06-25T20:15:11.352096,13.13470828,.0001937,87.8960,318.5116,94.7341,265.4010,0,U,49189,999,23206,.86249E-3,.328E-5,0
ONEWEB-0320,2021-083E,2026-06-25T19:29:25.717344,13.18686380,.0001839,87.9168,333.7455,96.4152,263.7189,0,U,49190,999,23111,-.20868E-4,.5E-7,0
ONEWEB-0321,2021-083F,2026-06-25T16:27:33.314400,13.20772573,.0002,87.9193,272.7412,108.0074,252.1277,0,U,49191,999,23795,.74565E-4,.43E-6,0
ONEWEB-0322,2021-083G,2026-06-25T20:09:06.317280,13.13471493,.0001532,87.8960,318.5127,109.1516,250.9779,0,U,49192,999,23205,.90841E-3,.345E-5,0
ONEWEB-0324,2021-083H,2026-06-25T11:33:32.411232,13.18685427,.0001996,87.9180,333.7997,96.7999,263.3361,0,U,49193,999,23109,.10486E-3,.54E-6,0
ONEWEB-0325,2021-083J,2026-06-25T11:38:23.771904,13.18686060,.0001784,87.9165,333.8063,93.2295,266.9041,0,U,49194,999,23110,.17526E-3,.82E-6,0
ONEWEB-0326,2021-083K,2026-06-25T19:17:30.399648,13.18684552,.0001873,87.9178,333.7415,86.1756,273.9590,0,U,49195,999,23113,-.26536E-3,-.92E-6,0
ONEWEB-0327,2021-083L,2026-06-25T19:17:06.162720,13.18684669,.0001748,87.9167,333.7451,81.9750,278.1581,0,U,49196,999,23115,-.19582E-3,-.64E-6,0
ONEWEB-0328,2021-083M,2026-06-25T19:54:27.864288,13.13471182,.0001973,87.8972,318.4884,98.3321,261.8032,0,U,49197,999,23203,.46047E-3,.181E-5,0
ONEWEB-0331,2021-083N,2026-06-25T19:07:33.968352,13.18688406,.0001978,87.9176,333.7366,84.8412,275.2946,0,U,49198,999,23114,.18164E-3,.85E-6,0
ONEWEB-0333,2021-083P,2026-06-25T19:47:08.876256,13.13471093,.0001814,87.8956,318.5151,97.1993,262.9342,0,U,49199,999,23204,-.10642E-3,-.26E-6,0
ONEWEB-0334,2021-083Q,2026-06-25T18:37:14.628000,13.20772730,.000169,87.9194,272.7334,123.9789,236.1505,0,U,49200,999,23792,-.17812E-3,-.59E-6,0
ONEWEB-0335,2021-083R,2026-06-25T19:39:49.667040,13.13471909,.0001938,87.8961,318.5133,92.9901,267.1449,0,U,49201,999,23205,-.42006E-3,-.141E-5,0
ONEWEB-0336,2021-083S,2026-06-25T15:19:01.261056,13.13471994,.0002042,87.8961,318.5447,91.0417,269.0946,0,U,49202,999,23202,-.21386E-3,-.65E-6,0
ONEWEB-0337,2021-083T,2026-06-25T19:12:49.224672,13.13470232,.0002066,87.8958,318.5183,97.0828,263.0536,0,U,49203,999,23204,-.73734E-3,-.257E-5,0
ONEWEB-0338,2021-083U,2026-06-25T19:53:35.027232,13.20773723,.0001868,87.9186,272.7260,106.4224,253.7115,0,U,49204,999,23795,-.25034E-3,-.89E-6,0
ONEWEB-0339,2021-083V,2026-06-25T19:25:11.722080,13.13471485,.0001778,87.8960,318.5092,107.2735,252.8589,0,U,49205,999,23202,-.81338E-3,-.284E-5,0
ONEWEB-0340,2021-083W,2026-06-25T20:37:25.807008,13.18686175,.0001976,87.9178,333.7302,91.3571,268.7787,0,U,49206,999,23111,.14266E-3,.69E-6,0
